{
  "norad_id": 63688,
  "name": "HULIANWANG DIGUI-21",
  "history": [
    {
      "epoch": "2026-03-28T22:49:31.750752Z",
      "apogee_km": 1169.4716625025276,
      "perigee_km": 1166.3681202242478,
      "latitude_deg": -4.5099589651914694e-05,
      "longitude_deg": 171.45215710617305,
      "height_km": 1170.7500516253194,
      "semi_major_axis_km": 7546.056891363388,
      "eccentricity": 0.00020564,
      "inclination_deg": 86.5133,
      "raan_deg": 340.1986,
      "arg_perigee_deg": 87.7488,
      "mean_anomaly_deg": 272.3881,
      "mean_motion_rev_day": 13.24410604
    },
    {
      "epoch": "2026-03-29T04:15:53.863200Z",
      "apogee_km": 1169.474261306872,
      "perigee_km": 1166.3652859161439,
      "latitude_deg": -8.691043713786652e-05,
      "longitude_deg": 89.56042811450114,
      "height_km": 1170.7505105096861,
      "semi_major_axis_km": 7546.056773611508,
      "eccentricity": 0.000206,
      "inclination_deg": 86.5133,
      "raan_deg": 340.1224,
      "arg_perigee_deg": 87.774,
      "mean_anomaly_deg": 272.3629,
      "mean_motion_rev_day": 13.24410635
    },
    {
      "epoch": "2026-03-30T03:50:09.674016Z",
      "apogee_km": 1169.4768200225808,
      "perigee_km": 1166.3618079761627,
      "latitude_deg": -2.525813020407842e-05,
      "longitude_deg": 94.69642507668021,
      "height_km": 1170.739158448493,
      "semi_major_axis_km": 7546.056313999372,
      "eccentricity": 0.0002064,
      "inclination_deg": 86.5131,
      "raan_deg": 339.7923,
      "arg_perigee_deg": 87.378,
      "mean_anomaly_deg": 272.759,
      "mean_motion_rev_day": 13.24410756
    },
    {
      "epoch": "2026-03-30T05:38:57.045408Z",
      "apogee_km": 1169.4759904804387,
      "perigee_km": 1166.3627894561932,
      "latitude_deg": -9.673763044896167e-06,
      "longitude_deg": 67.39918152609827,
      "height_km": 1170.736860029239,
      "semi_major_axis_km": 7546.056389968316,
      "eccentricity": 0.00020628,
      "inclination_deg": 86.5131,
      "raan_deg": 339.7669,
      "arg_perigee_deg": 87.289,
      "mean_anomaly_deg": 272.848,
      "mean_motion_rev_day": 13.24410736
    },
    {
      "epoch": "2026-03-30T12:54:06.526656Z",
      "apogee_km": 1169.479947574675,
      "perigee_km": 1166.3585968582338,
      "latitude_deg": 2.9324881444603778e-05,
      "longitude_deg": -41.78967604182825,
      "height_km": 1170.7356466542203,
      "semi_major_axis_km": 7546.056272216454,
      "eccentricity": 0.00020682,
      "inclination_deg": 86.5131,
      "raan_deg": 339.6654,
      "arg_perigee_deg": 87.2564,
      "mean_anomaly_deg": 272.8807,
      "mean_motion_rev_day": 13.24410767
    },
    {
      "epoch": "2026-03-30T21:58:03.380160Z",
      "apogee_km": 1169.4866934344864,
      "perigee_km": 1166.351759835693,
      "latitude_deg": 2.9270718869889467e-05,
      "longitude_deg": -178.27588408250065,
      "height_km": 1170.7314340236069,
      "semi_major_axis_km": 7546.05622663509,
      "eccentricity": 0.00020772,
      "inclination_deg": 86.5131,
      "raan_deg": 339.5384,
      "arg_perigee_deg": 87.1164,
      "mean_anomaly_deg": 273.0208,
      "mean_motion_rev_day": 13.24410779
    },
    {
      "epoch": "2026-03-31T19:43:31.828224Z",
      "apogee_km": 1169.4929350438588,
      "perigee_km": 1166.3447205525026,
      "latitude_deg": -6.0287543112274515e-05,
      "longitude_deg": -145.84268715376567,
      "height_km": 1170.71723633845,
      "semi_major_axis_km": 7546.055827798181,
      "eccentricity": 0.0002086,
      "inclination_deg": 86.513,
      "raan_deg": 339.2337,
      "arg_perigee_deg": 86.6257,
      "mean_anomaly_deg": 273.5115,
      "mean_motion_rev_day": 13.24410884
    },
    {
      "epoch": "2026-04-01T19:17:47.649408Z",
      "apogee_km": 1169.4994491494326,
      "perigee_km": 1166.3376518737678,
      "latitude_deg": 4.751808885966196e-05,
      "longitude_deg": -140.70673007236397,
      "height_km": 1170.7059622759698,
      "semi_major_axis_km": 7546.0555505116,
      "eccentricity": 0.0002095,
      "inclination_deg": 86.5128,
      "raan_deg": 338.9036,
      "arg_perigee_deg": 86.2422,
      "mean_anomaly_deg": 273.8952,
      "mean_motion_rev_day": 13.24410957
    },
    {
      "epoch": "2026-04-02T18:52:03.460224Z",
      "apogee_km": 1169.512614132088,
      "perigee_km": 1166.3236512330168,
      "latitude_deg": -4.328831318944506e-05,
      "longitude_deg": -135.570842165106,
      "height_km": 1170.6905502491252,
      "semi_major_axis_km": 7546.0551326825525,
      "eccentricity": 0.0002113,
      "inclination_deg": 86.5126,
      "raan_deg": 338.5734,
      "arg_perigee_deg": 85.7349,
      "mean_anomaly_deg": 274.4026,
      "mean_motion_rev_day": 13.24411067
    }
  ]
}